[Satellite]
VERSION=1.1
NAME=S-Net G
NICKNAME=S-Net G
TLE1=1 43186U 18014G   20156.74685173  .00000329  00000-0  33752-4 0  9999
TLE2=2 43186  97.6949  64.7917 0009551 266.5171  93.4959 14.96803112127790
STATUS=0
